{
    "links": {
        "self": "http://www.neowsapp.com/rest/v1/neo/3742883?api_key=iIulBulltgU6a56xZRHN4H3l9WmuAYTsLGpBGhQ2"
    },
    "id": "3742883",
    "neo_reference_id": "3742883",
    "name": "(2016 CM137)",
    "designation": "2016 CM137",
    "nasa_jpl_url": "http://ssd.jpl.nasa.gov/sbdb.cgi?sstr=3742883",
    "absolute_magnitude_h": 25.8,
    "estimated_diameter": {
        "kilometers": {
            "estimated_diameter_min": 0.0183888672,
            "estimated_diameter_max": 0.0411187571
        },
        "meters": {
            "estimated_diameter_min": 18.388867207,
            "estimated_diameter_max": 41.1187571041
        },
        "miles": {
            "estimated_diameter_min": 0.0114263088,
            "estimated_diameter_max": 0.0255500032
        },
        "feet": {
            "estimated_diameter_min": 60.3309310875,
            "estimated_diameter_max": 134.9040630575
        }
    },
    "is_potentially_hazardous_asteroid": false,
    "close_approach_data": [
        {
            "close_approach_date": "2013-02-22",
            "close_approach_date_full": "2013-Feb-22 13:33",
            "epoch_date_close_approach": 1361539980000,
            "relative_velocity": {
                "kilometers_per_second": "18.0911965959",
                "kilometers_per_hour": "65128.3077451295",
                "miles_per_hour": "40468.1976653"
            },
            "miss_distance": {
                "astronomical": "0.2619509575",
                "lunar": "101.8989224675",
                "kilometers": "39187305.286460525",
                "miles": "24349862.386884245"
            },
            "orbiting_body": "Earth"
        },
        {
            "close_approach_date": "2016-02-03",
            "close_approach_date_full": "2016-Feb-03 04:26",
            "epoch_date_close_approach": 1454473560000,
            "relative_velocity": {
                "kilometers_per_second": "10.8298091944",
                "kilometers_per_hour": "38987.3130996946",
                "miles_per_hour": "24225.200186863"
            },
            "miss_distance": {
                "astronomical": "0.0286883019",
                "lunar": "11.1597494391",
                "kilometers": "4291708.858156953",
                "miles": "2666744.2258858314"
            },
            "orbiting_body": "Earth"
        }
    ],
    "orbital_data": {
        "orbit_id": "8",
        "orbit_determination_date": "2017-04-06 08:28:26",
        "first_observation_date": "2016-02-09",
        "last_observation_date": "2016-02-17",
        "data_arc_in_days": 8,
        "observations_used": 51,
        "orbit_uncertainty": "7",
        "minimum_orbit_intersection": "8.25311E-5",
        "jupiter_tisserand_invariant": "3.563",
        "epoch_osculation": "2459000.5",
        "eccentricity": ".5543475605538705",
        "semi_major_axis": "2.069075606243769",
        "inclination": "3.194260183440683",
        "ascending_node_longitude": "307.8603594158835",
        "orbital_period": "1087.083659474246",
        "perihelion_distance": ".9220885913210149",
        "perihelion_argument": "145.3462396130658",
        "aphelion_distance": "3.216062621166522",
        "perihelion_time": "2458477.333181403995",
        "mean_anomaly": "173.2525855329756",
        "mean_motion": ".331161265154247",
        "equinox": "J2000",
        "orbit_class": {
            "orbit_class_type": "APO",
            "orbit_class_description": "Near-Earth asteroid orbits which cross the Earth’s orbit similar to that of 1862 Apollo",
            "orbit_class_range": "a (semi-major axis) > 1.0 AU; q (perihelion) < 1.017 AU"
        }
    },
    "is_sentry_object": false
}